<?xml version="1.0" encoding="UTF-8"?>
<ndm xmlns:xsi="http://www.w3.org/2001/XMLSchema-instance" xsi:noNamespaceSchemaLocation="https://sanaregistry.org/r/ndmxml_unqualified/ndmxml-2.0.0-master-2.0.xsd">
<omm id="CCSDS_OMM_VERS" version="2.0">
<header><CREATION_DATE/><ORIGINATOR/></header><body><segment><metadata><OBJECT_NAME>ONEWEB-0546</OBJECT_NAME><OBJECT_ID>2023-043C</OBJECT_ID><CENTER_NAME>EARTH</CENTER_NAME><REF_FRAME>TEME</REF_FRAME><TIME_SYSTEM>UTC</TIME_SYSTEM><MEAN_ELEMENT_THEORY>SGP4</MEAN_ELEMENT_THEORY></metadata><data><meanElements><EPOCH>2023-09-20T21:23:56.444928</EPOCH><MEAN_MOTION>14.89065734</MEAN_MOTION><ECCENTRICITY>.000161</ECCENTRICITY><INCLINATION>86.8899</INCLINATION><RA_OF_ASC_NODE>73.5388</RA_OF_ASC_NODE><ARG_OF_PERICENTER>140.0248</ARG_OF_PERICENTER><MEAN_ANOMALY>220.1097</MEAN_ANOMALY></meanElements><tleParameters><EPHEMERIS_TYPE>0</EPHEMERIS_TYPE><CLASSIFICATION_TYPE>U</CLASSIFICATION_TYPE><NORAD_CAT_ID>56048</NORAD_CAT_ID><ELEMENT_SET_NO>999</ELEMENT_SET_NO><REV_AT_EPOCH>2674</REV_AT_EPOCH><BSTAR>.51614E-3</BSTAR><MEAN_MOTION_DOT>.4887E-4</MEAN_MOTION_DOT><MEAN_MOTION_DDOT>0</MEAN_MOTION_DDOT></tleParameters></data></segment></body></omm>
<omm id="CCSDS_OMM_VERS" version="2.0">
<header><CREATION_DATE/><ORIGINATOR/></header><body><segment><metadata><OBJECT_NAME>ONEWEB-0547</OBJECT_NAME><OBJECT_ID>2023-043D</OBJECT_ID><CENTER_NAME>EARTH</CENTER_NAME><REF_FRAME>TEME</REF_FRAME><TIME_SYSTEM>UTC</TIME_SYSTEM><MEAN_ELEMENT_THEORY>SGP4</MEAN_ELEMENT_THEORY></metadata><data><meanElements><EPOCH>2023-09-20T22:04:28.782048</EPOCH><MEAN_MOTION>13.21804095</MEAN_MOTION><ECCENTRICITY>.0002253</ECCENTRICITY><INCLINATION>87.9274</INCLINATION><RA_OF_ASC_NODE>83.1295</RA_OF_ASC_NODE><ARG_OF_PERICENTER>71.7238</ARG_OF_PERICENTER><MEAN_ANOMALY>288.4141</MEAN_ANOMALY></meanElements><tleParameters><EPHEMERIS_TYPE>0</EPHEMERIS_TYPE><CLASSIFICATION_TYPE>U</CLASSIFICATION_TYPE><NORAD_CAT_ID>56049</NORAD_CAT_ID><ELEMENT_SET_NO>999</ELEMENT_SET_NO><REV_AT_EPOCH>2608</REV_AT_EPOCH><BSTAR>.11549E-1</BSTAR><MEAN_MOTION_DOT>.4784E-4</MEAN_MOTION_DOT><MEAN_MOTION_DDOT>0</MEAN_MOTION_DDOT></tleParameters></data></segment></body></omm>
<omm id="CCSDS_OMM_VERS" version="2.0">
<header><CREATION_DATE/><ORIGINATOR/></header><body><segment><metadata><OBJECT_NAME>ONEWEB-0548</OBJECT_NAME><OBJECT_ID>2023-043E</OBJECT_ID><CENTER_NAME>EARTH</CENTER_NAME><REF_FRAME>TEME</REF_FRAME><TIME_SYSTEM>UTC</TIME_SYSTEM><MEAN_ELEMENT_THEORY>SGP4</MEAN_ELEMENT_THEORY></metadata><data><meanElements><EPOCH>2023-09-20T22:46:57.889632</EPOCH><MEAN_MOTION>14.89012408</MEAN_MOTION><ECCENTRICITY>.0001943</ECCENTRICITY><INCLINATION>86.8982</INCLINATION><RA_OF_ASC_NODE>73.6524</RA_OF_ASC_NODE><ARG_OF_PERICENTER>119.2700</ARG_OF_PERICENTER><MEAN_ANOMALY>240.8721</MEAN_ANOMALY></meanElements><tleParameters><EPHEMERIS_TYPE>0</EPHEMERIS_TYPE><CLASSIFICATION_TYPE>U</CLASSIFICATION_TYPE><NORAD_CAT_ID>56050</NORAD_CAT_ID><ELEMENT_SET_NO>999</ELEMENT_SET_NO><REV_AT_EPOCH>2674</REV_AT_EPOCH><BSTAR>.28816E-3</BSTAR><MEAN_MOTION_DOT>.2736E-4</MEAN_MOTION_DOT><MEAN_MOTION_DDOT>0</MEAN_MOTION_DDOT></tleParameters></data></segment></body></omm>
<omm id="CCSDS_OMM_VERS" version="2.0">
<header><CREATION_DATE/><ORIGINATOR/></header><body><segment><metadata><OBJECT_NAME>ONEWEB-0549</OBJECT_NAME><OBJECT_ID>2023-043F</OBJECT_ID><CENTER_NAME>EARTH</CENTER_NAME><REF_FRAME>TEME</REF_FRAME><TIME_SYSTEM>UTC</TIME_SYSTEM><MEAN_ELEMENT_THEORY>SGP4</MEAN_ELEMENT_THEORY></metadata><data><meanElements><EPOCH>2023-09-20T21:55:13.509120</EPOCH><MEAN_MOTION>13.21858888</MEAN_MOTION><ECCENTRICITY>.000258</ECCENTRICITY><INCLINATION>87.9167</INCLINATION><RA_OF_ASC_NODE>83.1361</RA_OF_ASC_NODE><ARG_OF_PERICENTER>68.6182</ARG_OF_PERICENTER><MEAN_ANOMALY>291.5227</MEAN_ANOMALY></meanElements><tleParameters><EPHEMERIS_TYPE>0</EPHEMERIS_TYPE><CLASSIFICATION_TYPE>U</CLASSIFICATION_TYPE><NORAD_CAT_ID>56051</NORAD_CAT_ID><ELEMENT_SET_NO>999</ELEMENT_SET_NO><REV_AT_EPOCH>2608</REV_AT_EPOCH><BSTAR>.11209E-3</BSTAR><MEAN_MOTION_DOT>.59E-6</MEAN_MOTION_DOT><MEAN_MOTION_DDOT>0</MEAN_MOTION_DDOT></tleParameters></data></segment></body></omm>
<omm id="CCSDS_OMM_VERS" version="2.0">
<header><CREATION_DATE/><ORIGINATOR/></header><body><segment><metadata><OBJECT_NAME>ONEWEB-0550</OBJECT_NAME><OBJECT_ID>2023-043G</OBJECT_ID><CENTER_NAME>EARTH</CENTER_NAME><REF_FRAME>TEME</REF_FRAME><TIME_SYSTEM>UTC</TIME_SYSTEM><MEAN_ELEMENT_THEORY>SGP4</MEAN_ELEMENT_THEORY></metadata><data><meanElements><EPOCH>2023-09-20T22:00:00.999936</EPOCH><MEAN_MOTION>13.21847494</MEAN_MOTION><ECCENTRICITY>.000161</ECCENTRICITY><INCLINATION>87.9142</INCLINATION><RA_OF_ASC_NODE>83.1472</RA_OF_ASC_NODE><ARG_OF_PERICENTER>80.6352</ARG_OF_PERICENTER><MEAN_ANOMALY>355.4997</MEAN_ANOMALY></meanElements><tleParameters><EPHEMERIS_TYPE>0</EPHEMERIS_TYPE><CLASSIFICATION_TYPE>U</CLASSIFICATION_TYPE><NORAD_CAT_ID>56052</NORAD_CAT_ID><ELEMENT_SET_NO>999</ELEMENT_SET_NO><REV_AT_EPOCH>547</REV_AT_EPOCH><BSTAR>.10039E+0</BSTAR><MEAN_MOTION_DOT>.41679E-3</MEAN_MOTION_DOT><MEAN_MOTION_DDOT>0</MEAN_MOTION_DDOT></tleParameters></data></segment></body></omm>
<omm id="CCSDS_OMM_VERS" version="2.0">
<header><CREATION_DATE/><ORIGINATOR/></header><body><segment><metadata><OBJECT_NAME>ONEWEB-0551</OBJECT_NAME><OBJECT_ID>2023-043H</OBJECT_ID><CENTER_NAME>EARTH</CENTER_NAME><REF_FRAME>TEME</REF_FRAME><TIME_SYSTEM>UTC</TIME_SYSTEM><MEAN_ELEMENT_THEORY>SGP4</MEAN_ELEMENT_THEORY></metadata><data><meanElements><EPOCH>2023-09-20T22:10:34.000896</EPOCH><MEAN_MOTION>13.15545778</MEAN_MOTION><ECCENTRICITY>.000198</ECCENTRICITY><INCLINATION>87.8947</INCLINATION><RA_OF_ASC_NODE>98.3906</RA_OF_ASC_NODE><ARG_OF_PERICENTER>82.0212</ARG_OF_PERICENTER><MEAN_ANOMALY>278.1143</MEAN_ANOMALY></meanElements><tleParameters><EPHEMERIS_TYPE>0</EPHEMERIS_TYPE><CLASSIFICATION_TYPE>U</CLASSIFICATION_TYPE><NORAD_CAT_ID>56053</NORAD_CAT_ID><ELEMENT_SET_NO>999</ELEMENT_SET_NO><REV_AT_EPOCH>2488</REV_AT_EPOCH><BSTAR>.33989E-3</BSTAR><MEAN_MOTION_DOT>.141E-5</MEAN_MOTION_DOT><MEAN_MOTION_DDOT>0</MEAN_MOTION_DDOT></tleParameters></data></segment></body></omm>
<omm id="CCSDS_OMM_VERS" version="2.0">
<header><CREATION_DATE/><ORIGINATOR/></header><body><segment><metadata><OBJECT_NAME>ONEWEB-0552</OBJECT_NAME><OBJECT_ID>2023-043J</OBJECT_ID><CENTER_NAME>EARTH</CENTER_NAME><REF_FRAME>TEME</REF_FRAME><TIME_SYSTEM>UTC</TIME_SYSTEM><MEAN_ELEMENT_THEORY>SGP4</MEAN_ELEMENT_THEORY></metadata><data><meanElements><EPOCH>2023-09-20T22:00:00.999936</EPOCH><MEAN_MOTION>13.21868512</MEAN_MOTION><ECCENTRICITY>.0002351</ECCENTRICITY><INCLINATION>87.9177</INCLINATION><RA_OF_ASC_NODE>83.1551</RA_OF_ASC_NODE><ARG_OF_PERICENTER>103.9426</ARG_OF_PERICENTER><MEAN_ANOMALY>2.5169</MEAN_ANOMALY></meanElements><tleParameters><EPHEMERIS_TYPE>0</EPHEMERIS_TYPE><CLASSIFICATION_TYPE>U</CLASSIFICATION_TYPE><NORAD_CAT_ID>56054</NORAD_CAT_ID><ELEMENT_SET_NO>999</ELEMENT_SET_NO><REV_AT_EPOCH>541</REV_AT_EPOCH><BSTAR>.10695E+0</BSTAR><MEAN_MOTION_DOT>.44429E-3</MEAN_MOTION_DOT><MEAN_MOTION_DDOT>0</MEAN_MOTION_DDOT></tleParameters></data></segment></body></omm>
<omm id="CCSDS_OMM_VERS" version="2.0">
<header><CREATION_DATE/><ORIGINATOR/></header><body><segment><metadata><OBJECT_NAME>ONEWEB-0553</OBJECT_NAME><OBJECT_ID>2023-043K</OBJECT_ID><CENTER_NAME>EARTH</CENTER_NAME><REF_FRAME>TEME</REF_FRAME><TIME_SYSTEM>UTC</TIME_SYSTEM><MEAN_ELEMENT_THEORY>SGP4</MEAN_ELEMENT_THEORY></metadata><data><meanElements><EPOCH>2023-09-20T21:53:22.960320</EPOCH><MEAN_MOTION>14.89088340</MEAN_MOTION><ECCENTRICITY>.000425</ECCENTRICITY><INCLINATION>86.8983</INCLINATION><RA_OF_ASC_NODE>73.6658</RA_OF_ASC_NODE><ARG_OF_PERICENTER>86.2690</ARG_OF_PERICENTER><MEAN_ANOMALY>273.9023</MEAN_ANOMALY></meanElements><tleParameters><EPHEMERIS_TYPE>0</EPHEMERIS_TYPE><CLASSIFICATION_TYPE>U</CLASSIFICATION_TYPE><NORAD_CAT_ID>56055</NORAD_CAT_ID><ELEMENT_SET_NO>999</ELEMENT_SET_NO><REV_AT_EPOCH>2674</REV_AT_EPOCH><BSTAR>.2638E-3</BSTAR><MEAN_MOTION_DOT>.2512E-4</MEAN_MOTION_DOT><MEAN_MOTION_DDOT>0</MEAN_MOTION_DDOT></tleParameters></data></segment></body></omm>
<omm id="CCSDS_OMM_VERS" version="2.0">
<header><CREATION_DATE/><ORIGINATOR/></header><body><segment><metadata><OBJECT_NAME>ONEWEB-0554</OBJECT_NAME><OBJECT_ID>2023-043L</OBJECT_ID><CENTER_NAME>EARTH</CENTER_NAME><REF_FRAME>TEME</REF_FRAME><TIME_SYSTEM>UTC</TIME_SYSTEM><MEAN_ELEMENT_THEORY>SGP4</MEAN_ELEMENT_THEORY></metadata><data><meanElements><EPOCH>2023-09-20T22:06:27.892224</EPOCH><MEAN_MOTION>14.89084519</MEAN_MOTION><ECCENTRICITY>.0000563</ECCENTRICITY><INCLINATION>86.8904</INCLINATION><RA_OF_ASC_NODE>73.5238</RA_OF_ASC_NODE><ARG_OF_PERICENTER>112.4278</ARG_OF_PERICENTER><MEAN_ANOMALY>247.7008</MEAN_ANOMALY></meanElements><tleParameters><EPHEMERIS_TYPE>0</EPHEMERIS_TYPE><CLASSIFICATION_TYPE>U</CLASSIFICATION_TYPE><NORAD_CAT_ID>56056</NORAD_CAT_ID><ELEMENT_SET_NO>999</ELEMENT_SET_NO><REV_AT_EPOCH>2674</REV_AT_EPOCH><BSTAR>.286E-3</BSTAR><MEAN_MOTION_DOT>.2721E-4</MEAN_MOTION_DOT><MEAN_MOTION_DDOT>0</MEAN_MOTION_DDOT></tleParameters></data></segment></body></omm>

</ndm>
